STARLINK-35640          
1 66536U 25265W   25341.25005787 -.01955474  00000+0 -24482-1 0  9992
2 66536  43.0006  86.1670 0001483 280.4226 117.8678 15.62250650  4092
STARLINK-35582          
1 66537U 25265X   25341.25005787 -.01956371  00000+0 -24492-1 0  9991
2 66537  43.0009  86.1622 0001526 278.7539 121.4518 15.62252370  4116
STARLINK-35577          
1 66538U 25265Y   25341.25005787 -.01960806  00000+0 -24552-1 0  9997
2 66538  43.0011  86.1568 0001524 279.4302 122.6902 15.62256310  4111
STARLINK-35697          
1 66539U 25265Z   25341.25005787 -.01960426  00000+0 -24549-1 0  9992
2 66539  43.0009  86.1517 0001449 277.2804 126.7607 15.62254325  4113
STARLINK-35818          
1 66540U 25265AA  25341.25005787 -.01960578  00000+0 -24551-1 0  9995
2 66540  43.0006  86.1472 0001459 279.0167 126.9404 15.62254777  4113
STARLINK-35796          
1 66541U 25265AB  25341.25005787 -.01960069  00000+0 -24543-1 0  9992
2 66541  43.0006  86.1421 0001465 280.3917 127.4810 15.62255206  4118
STARLINK-35833          
1 66542U 25265AC  25341.25005787 -.01960225  00000+0 -24545-1 0  9999
2 66542  43.0007  86.1379 0001504 283.0119 126.7775 15.62255081  4113
STARLINK-35315          
1 66543U 25265AD  25341.25005787 -.01963856  00000+0 -24596-1 0  9999
2 66543  43.0007  86.1326 0001459 279.5445 132.1634 15.62256600  4008
STARLINK-35728          
1 66544U 25265AE  25341.25005787 -.01963204  00000+0 -24586-1 0  9996
2 66544  43.0003  86.1279 0001462 279.6101 134.0132 15.62257281  4118
