CCSDS_OMM_VERS = 2.0
CREATION_DATE  = 
ORIGINATOR     = 

OBJECT_NAME    = STARLINK-35640
OBJECT_ID      = 2025-265W
CENTER_NAME    = EARTH
REF_FRAME      = TEME
TIME_SYSTEM    = UTC
MEAN_ELEMENT_THEORY = SGP/SGP4

EPOCH          = 2025-12-07T06:00:04.999968
MEAN_MOTION    = 15.62250650
ECCENTRICITY   = .0001483
INCLINATION    = 43.0006
RA_OF_ASC_NODE = 86.1670
ARG_OF_PERICENTER = 280.4226
MEAN_ANOMALY   = 117.8678

EPHEMERIS_TYPE = 0
CLASSIFICATION_TYPE = U
NORAD_CAT_ID   = 66536
ELEMENT_SET_NO = 999
REV_AT_EPOCH   = 409
BSTAR          = -.24481809E-1
MEAN_MOTION_DOT = -.1955474E-1
MEAN_MOTION_DDOT = 0

CCSDS_OMM_VERS = 2.0
CREATION_DATE  = 
ORIGINATOR     = 

OBJECT_NAME    = STARLINK-35582
OBJECT_ID      = 2025-265X
CENTER_NAME    = EARTH
REF_FRAME      = TEME
TIME_SYSTEM    = UTC
MEAN_ELEMENT_THEORY = SGP/SGP4

EPOCH          = 2025-12-07T06:00:04.999968
MEAN_MOTION    = 15.62252370
ECCENTRICITY   = .00015262
INCLINATION    = 43.0009
RA_OF_ASC_NODE = 86.1622
ARG_OF_PERICENTER = 278.7539
MEAN_ANOMALY   = 121.4518

EPHEMERIS_TYPE = 0
CLASSIFICATION_TYPE = U
NORAD_CAT_ID   = 66537
ELEMENT_SET_NO = 999
REV_AT_EPOCH   = 411
BSTAR          = -.24492469E-1
MEAN_MOTION_DOT = -.1956371E-1
MEAN_MOTION_DDOT = 0

CCSDS_OMM_VERS = 2.0
CREATION_DATE  = 
ORIGINATOR     = 

OBJECT_NAME    = STARLINK-35577
OBJECT_ID      = 2025-265Y
CENTER_NAME    = EARTH
REF_FRAME      = TEME
TIME_SYSTEM    = UTC
MEAN_ELEMENT_THEORY = SGP/SGP4

EPOCH          = 2025-12-07T06:00:04.999968
MEAN_MOTION    = 15.62256310
ECCENTRICITY   = .00015241
INCLINATION    = 43.0011
RA_OF_ASC_NODE = 86.1568
ARG_OF_PERICENTER = 279.4302
MEAN_ANOMALY   = 122.6902

EPHEMERIS_TYPE = 0
CLASSIFICATION_TYPE = U
NORAD_CAT_ID   = 66538
ELEMENT_SET_NO = 999
REV_AT_EPOCH   = 411
BSTAR          = -.24551794E-1
MEAN_MOTION_DOT = -.1960806E-1
MEAN_MOTION_DDOT = 0

CCSDS_OMM_VERS = 2.0
CREATION_DATE  = 
ORIGINATOR     = 

OBJECT_NAME    = STARLINK-35697
OBJECT_ID      = 2025-265Z
CENTER_NAME    = EARTH
REF_FRAME      = TEME
TIME_SYSTEM    = UTC
MEAN_ELEMENT_THEORY = SGP/SGP4

EPOCH          = 2025-12-07T06:00:04.999968
MEAN_MOTION    = 15.62254325
ECCENTRICITY   = .00014499
INCLINATION    = 43.0009
RA_OF_ASC_NODE = 86.1517
ARG_OF_PERICENTER = 277.2804
MEAN_ANOMALY   = 126.7607

EPHEMERIS_TYPE = 0
CLASSIFICATION_TYPE = U
NORAD_CAT_ID   = 66539
ELEMENT_SET_NO = 999
REV_AT_EPOCH   = 411
BSTAR          = -.2454908E-1
MEAN_MOTION_DOT = -.1960426E-1
MEAN_MOTION_DDOT = 0

CCSDS_OMM_VERS = 2.0
CREATION_DATE  = 
ORIGINATOR     = 

OBJECT_NAME    = STARLINK-35818
OBJECT_ID      = 2025-265AA
CENTER_NAME    = EARTH
REF_FRAME      = TEME
TIME_SYSTEM    = UTC
MEAN_ELEMENT_THEORY = SGP/SGP4

EPOCH          = 2025-12-07T06:00:04.999968
MEAN_MOTION    = 15.62254777
ECCENTRICITY   = .00014592
INCLINATION    = 43.0006
RA_OF_ASC_NODE = 86.1472
ARG_OF_PERICENTER = 279.0167
MEAN_ANOMALY   = 126.9404

EPHEMERIS_TYPE = 0
CLASSIFICATION_TYPE = U
NORAD_CAT_ID   = 66540
ELEMENT_SET_NO = 999
REV_AT_EPOCH   = 411
BSTAR          = -.24550704E-1
MEAN_MOTION_DOT = -.1960578E-1
MEAN_MOTION_DDOT = 0

CCSDS_OMM_VERS = 2.0
CREATION_DATE  = 
ORIGINATOR     = 

OBJECT_NAME    = STARLINK-35796
OBJECT_ID      = 2025-265AB
CENTER_NAME    = EARTH
REF_FRAME      = TEME
TIME_SYSTEM    = UTC
MEAN_ELEMENT_THEORY = SGP/SGP4

EPOCH          = 2025-12-07T06:00:04.999968
MEAN_MOTION    = 15.62255206
ECCENTRICITY   = .0001465
INCLINATION    = 43.0006
RA_OF_ASC_NODE = 86.1421
ARG_OF_PERICENTER = 280.3917
MEAN_ANOMALY   = 127.4810

EPHEMERIS_TYPE = 0
CLASSIFICATION_TYPE = U
NORAD_CAT_ID   = 66541
ELEMENT_SET_NO = 999
REV_AT_EPOCH   = 411
BSTAR          = -.24542977E-1
MEAN_MOTION_DOT = -.1960069E-1
MEAN_MOTION_DDOT = 0

CCSDS_OMM_VERS = 2.0
CREATION_DATE  = 
ORIGINATOR     = 

OBJECT_NAME    = STARLINK-35833
OBJECT_ID      = 2025-265AC
CENTER_NAME    = EARTH
REF_FRAME      = TEME
TIME_SYSTEM    = UTC
MEAN_ELEMENT_THEORY = SGP/SGP4

EPOCH          = 2025-12-07T06:00:04.999968
MEAN_MOTION    = 15.62255081
ECCENTRICITY   = .00015049
INCLINATION    = 43.0007
RA_OF_ASC_NODE = 86.1379
ARG_OF_PERICENTER = 283.0119
MEAN_ANOMALY   = 126.7775

EPHEMERIS_TYPE = 0
CLASSIFICATION_TYPE = U
NORAD_CAT_ID   = 66542
ELEMENT_SET_NO = 999
REV_AT_EPOCH   = 411
BSTAR          = -.24544906E-1
MEAN_MOTION_DOT = -.1960225E-1
MEAN_MOTION_DDOT = 0

CCSDS_OMM_VERS = 2.0
CREATION_DATE  = 
ORIGINATOR     = 

OBJECT_NAME    = STARLINK-35315
OBJECT_ID      = 2025-265AD
CENTER_NAME    = EARTH
REF_FRAME      = TEME
TIME_SYSTEM    = UTC
MEAN_ELEMENT_THEORY = SGP/SGP4

EPOCH          = 2025-12-07T06:00:04.999968
MEAN_MOTION    = 15.62256600
ECCENTRICITY   = .00014596
INCLINATION    = 43.0007
RA_OF_ASC_NODE = 86.1326
ARG_OF_PERICENTER = 279.5445
MEAN_ANOMALY   = 132.1634

EPHEMERIS_TYPE = 0
CLASSIFICATION_TYPE = U
NORAD_CAT_ID   = 66543
ELEMENT_SET_NO = 999
REV_AT_EPOCH   = 400
BSTAR          = -.24595598E-1
MEAN_MOTION_DOT = -.1963856E-1
MEAN_MOTION_DDOT = 0

CCSDS_OMM_VERS = 2.0
CREATION_DATE  = 
ORIGINATOR     = 

OBJECT_NAME    = STARLINK-35728
OBJECT_ID      = 2025-265AE
CENTER_NAME    = EARTH
REF_FRAME      = TEME
TIME_SYSTEM    = UTC
MEAN_ELEMENT_THEORY = SGP/SGP4

EPOCH          = 2025-12-07T06:00:04.999968
MEAN_MOTION    = 15.62257281
ECCENTRICITY   = .00014625
INCLINATION    = 43.0003
RA_OF_ASC_NODE = 86.1279
ARG_OF_PERICENTER = 279.6101
MEAN_ANOMALY   = 134.0132

EPHEMERIS_TYPE = 0
CLASSIFICATION_TYPE = U
NORAD_CAT_ID   = 66544
ELEMENT_SET_NO = 999
REV_AT_EPOCH   = 411
BSTAR          = -.24585615E-1
MEAN_MOTION_DOT = -.1963204E-1
MEAN_MOTION_DDOT = 0

